IRIDIUM 171             
1 43929U 19002H   24207.26693265  .00000201  00000+0  64612-4 0  9998
2 43929  86.3965 282.9524 0002095  91.7352 268.4084 14.34217451289789
IRIDIUM 170             
1 43930U 19002J   24207.66172602  .00001799  00000+0  28143-3 0  9992
2 43930  86.6087 282.6009 0002270  92.7502 267.3975 14.72251159297519
IRIDIUM 167             
1 43931U 19002K   24207.26059032  .00000230  00000+0  75036-4 0  9993
2 43931  86.3959 282.7419 0002274  91.3662 268.7795 14.34217945289785
IRIDIUM 181             
1 56726U 23068S   24207.30051646  .00000774  00000+0  22277-3 0  9995
2 56726  86.8667 338.3108 0002321  88.7818 271.3649 14.43585551 62633
IRIDIUM 177             
1 56727U 23068T   24207.28492701  .00002692  00000+0  35088-3 0  9999
2 56727  86.1981 297.2734 0002411  90.5827 269.5670 14.80222525 64012
IRIDIUM 174             
1 56728U 23068U   24207.27949487  .00002006  00000+0  26062-3 0  9998
2 56728  86.1991 297.3824 0002477  90.0020 270.1485 14.80217042 64017
IRIDIUM 178             
1 56729U 23068V   24207.34167785  .00002741  00000+0  35734-3 0  9992
2 56729  86.5805 316.6275 0002754  92.3337 267.8200 14.80220085 64025
IRIDIUM 179             
1 56730U 23068W   24206.99823034  .00001219  00000+0  15704-3 0  9994
2 56730  86.6814 321.3844 0002334  95.2867 264.8621 14.80217383 63971
