<?xml version="1.0" encoding="UTF-8"?>
<ndm xmlns:xsi="http://www.w3.org/2001/XMLSchema-instance" xsi:noNamespaceSchemaLocation="https://sanaregistry.org/r/ndmxml_unqualified/ndmxml-2.0.0-master-2.0.xsd">
<omm id="CCSDS_OMM_VERS" version="2.0">
<header><CREATION_DATE/><ORIGINATOR/></header><body><segment><metadata><OBJECT_NAME>IRIDIUM 171</OBJECT_NAME><OBJECT_ID>2019-002H</OBJECT_ID><CENTER_NAME>EARTH</CENTER_NAME><REF_FRAME>TEME</REF_FRAME><TIME_SYSTEM>UTC</TIME_SYSTEM><MEAN_ELEMENT_THEORY>SGP4</MEAN_ELEMENT_THEORY></metadata><data><meanElements><EPOCH>2024-07-25T06:24:22.980960</EPOCH><MEAN_MOTION>14.34217451</MEAN_MOTION><ECCENTRICITY>.0002095</ECCENTRICITY><INCLINATION>86.3965</INCLINATION><RA_OF_ASC_NODE>282.9524</RA_OF_ASC_NODE><ARG_OF_PERICENTER>91.7352</ARG_OF_PERICENTER><MEAN_ANOMALY>268.4084</MEAN_ANOMALY></meanElements><tleParameters><EPHEMERIS_TYPE>0</EPHEMERIS_TYPE><CLASSIFICATION_TYPE>U</CLASSIFICATION_TYPE><NORAD_CAT_ID>43929</NORAD_CAT_ID><ELEMENT_SET_NO>999</ELEMENT_SET_NO><REV_AT_EPOCH>28978</REV_AT_EPOCH><BSTAR>.64612E-4</BSTAR><MEAN_MOTION_DOT>.201E-5</MEAN_MOTION_DOT><MEAN_MOTION_DDOT>0</MEAN_MOTION_DDOT></tleParameters></data></segment></body></omm>
<omm id="CCSDS_OMM_VERS" version="2.0">
<header><CREATION_DATE/><ORIGINATOR/></header><body><segment><metadata><OBJECT_NAME>IRIDIUM 170</OBJECT_NAME><OBJECT_ID>2019-002J</OBJECT_ID><CENTER_NAME>EARTH</CENTER_NAME><REF_FRAME>TEME</REF_FRAME><TIME_SYSTEM>UTC</TIME_SYSTEM><MEAN_ELEMENT_THEORY>SGP4</MEAN_ELEMENT_THEORY></metadata><data><meanElements><EPOCH>2024-07-25T15:52:53.128128</EPOCH><MEAN_MOTION>14.72251159</MEAN_MOTION><ECCENTRICITY>.000227</ECCENTRICITY><INCLINATION>86.6087</INCLINATION><RA_OF_ASC_NODE>282.6009</RA_OF_ASC_NODE><ARG_OF_PERICENTER>92.7502</ARG_OF_PERICENTER><MEAN_ANOMALY>267.3975</MEAN_ANOMALY></meanElements><tleParameters><EPHEMERIS_TYPE>0</EPHEMERIS_TYPE><CLASSIFICATION_TYPE>U</CLASSIFICATION_TYPE><NORAD_CAT_ID>43930</NORAD_CAT_ID><ELEMENT_SET_NO>999</ELEMENT_SET_NO><REV_AT_EPOCH>29751</REV_AT_EPOCH><BSTAR>.28143E-3</BSTAR><MEAN_MOTION_DOT>.1799E-4</MEAN_MOTION_DOT><MEAN_MOTION_DDOT>0</MEAN_MOTION_DDOT></tleParameters></data></segment></body></omm>
<omm id="CCSDS_OMM_VERS" version="2.0">
<header><CREATION_DATE/><ORIGINATOR/></header><body><segment><metadata><OBJECT_NAME>IRIDIUM 167</OBJECT_NAME><OBJECT_ID>2019-002K</OBJECT_ID><CENTER_NAME>EARTH</CENTER_NAME><REF_FRAME>TEME</REF_FRAME><TIME_SYSTEM>UTC</TIME_SYSTEM><MEAN_ELEMENT_THEORY>SGP4</MEAN_ELEMENT_THEORY></metadata><data><meanElements><EPOCH>2024-07-25T06:15:15.003648</EPOCH><MEAN_MOTION>14.34217945</MEAN_MOTION><ECCENTRICITY>.0002274</ECCENTRICITY><INCLINATION>86.3959</INCLINATION><RA_OF_ASC_NODE>282.7419</RA_OF_ASC_NODE><ARG_OF_PERICENTER>91.3662</ARG_OF_PERICENTER><MEAN_ANOMALY>268.7795</MEAN_ANOMALY></meanElements><tleParameters><EPHEMERIS_TYPE>0</EPHEMERIS_TYPE><CLASSIFICATION_TYPE>U</CLASSIFICATION_TYPE><NORAD_CAT_ID>43931</NORAD_CAT_ID><ELEMENT_SET_NO>999</ELEMENT_SET_NO><REV_AT_EPOCH>28978</REV_AT_EPOCH><BSTAR>.75036E-4</BSTAR><MEAN_MOTION_DOT>.23E-5</MEAN_MOTION_DOT><MEAN_MOTION_DDOT>0</MEAN_MOTION_DDOT></tleParameters></data></segment></body></omm>
<omm id="CCSDS_OMM_VERS" version="2.0">
<header><CREATION_DATE/><ORIGINATOR/></header><body><segment><metadata><OBJECT_NAME>IRIDIUM 181</OBJECT_NAME><OBJECT_ID>2023-068S</OBJECT_ID><CENTER_NAME>EARTH</CENTER_NAME><REF_FRAME>TEME</REF_FRAME><TIME_SYSTEM>UTC</TIME_SYSTEM><MEAN_ELEMENT_THEORY>SGP4</MEAN_ELEMENT_THEORY></metadata><data><meanElements><EPOCH>2024-07-25T07:12:44.622144</EPOCH><MEAN_MOTION>14.43585551</MEAN_MOTION><ECCENTRICITY>.0002321</ECCENTRICITY><INCLINATION>86.8667</INCLINATION><RA_OF_ASC_NODE>338.3108</RA_OF_ASC_NODE><ARG_OF_PERICENTER>88.7818</ARG_OF_PERICENTER><MEAN_ANOMALY>271.3649</MEAN_ANOMALY></meanElements><tleParameters><EPHEMERIS_TYPE>0</EPHEMERIS_TYPE><CLASSIFICATION_TYPE>U</CLASSIFICATION_TYPE><NORAD_CAT_ID>56726</NORAD_CAT_ID><ELEMENT_SET_NO>999</ELEMENT_SET_NO><REV_AT_EPOCH>6263</REV_AT_EPOCH><BSTAR>.22277E-3</BSTAR><MEAN_MOTION_DOT>.774E-5</MEAN_MOTION_DOT><MEAN_MOTION_DDOT>0</MEAN_MOTION_DDOT></tleParameters></data></segment></body></omm>
<omm id="CCSDS_OMM_VERS" version="2.0">
<header><CREATION_DATE/><ORIGINATOR/></header><body><segment><metadata><OBJECT_NAME>IRIDIUM 177</OBJECT_NAME><OBJECT_ID>2023-068T</OBJECT_ID><CENTER_NAME>EARTH</CENTER_NAME><REF_FRAME>TEME</REF_FRAME><TIME_SYSTEM>UTC</TIME_SYSTEM><MEAN_ELEMENT_THEORY>SGP4</MEAN_ELEMENT_THEORY></metadata><data><meanElements><EPOCH>2024-07-25T06:50:17.693664</EPOCH><MEAN_MOTION>14.80222525</MEAN_MOTION><ECCENTRICITY>.0002411</ECCENTRICITY><INCLINATION>86.1981</INCLINATION><RA_OF_ASC_NODE>297.2734</RA_OF_ASC_NODE><ARG_OF_PERICENTER>90.5827</ARG_OF_PERICENTER><MEAN_ANOMALY>269.5670</MEAN_ANOMALY></meanElements><tleParameters><EPHEMERIS_TYPE>0</EPHEMERIS_TYPE><CLASSIFICATION_TYPE>U</CLASSIFICATION_TYPE><NORAD_CAT_ID>56727</NORAD_CAT_ID><ELEMENT_SET_NO>999</ELEMENT_SET_NO><REV_AT_EPOCH>6401</REV_AT_EPOCH><BSTAR>.35088E-3</BSTAR><MEAN_MOTION_DOT>.2692E-4</MEAN_MOTION_DOT><MEAN_MOTION_DDOT>0</MEAN_MOTION_DDOT></tleParameters></data></segment></body></omm>
<omm id="CCSDS_OMM_VERS" version="2.0">
<header><CREATION_DATE/><ORIGINATOR/></header><body><segment><metadata><OBJECT_NAME>IRIDIUM 174</OBJECT_NAME><OBJECT_ID>2023-068U</OBJECT_ID><CENTER_NAME>EARTH</CENTER_NAME><REF_FRAME>TEME</REF_FRAME><TIME_SYSTEM>UTC</TIME_SYSTEM><MEAN_ELEMENT_THEORY>SGP4</MEAN_ELEMENT_THEORY></metadata><data><meanElements><EPOCH>2024-07-25T06:42:28.356768</EPOCH><MEAN_MOTION>14.80217042</MEAN_MOTION><ECCENTRICITY>.0002477</ECCENTRICITY><INCLINATION>86.1991</INCLINATION><RA_OF_ASC_NODE>297.3824</RA_OF_ASC_NODE><ARG_OF_PERICENTER>90.0020</ARG_OF_PERICENTER><MEAN_ANOMALY>270.1485</MEAN_ANOMALY></meanElements><tleParameters><EPHEMERIS_TYPE>0</EPHEMERIS_TYPE><CLASSIFICATION_TYPE>U</CLASSIFICATION_TYPE><NORAD_CAT_ID>56728</NORAD_CAT_ID><ELEMENT_SET_NO>999</ELEMENT_SET_NO><REV_AT_EPOCH>6401</REV_AT_EPOCH><BSTAR>.26062E-3</BSTAR><MEAN_MOTION_DOT>.2006E-4</MEAN_MOTION_DOT><MEAN_MOTION_DDOT>0</MEAN_MOTION_DDOT></tleParameters></data></segment></body></omm>
<omm id="CCSDS_OMM_VERS" version="2.0">
<header><CREATION_DATE/><ORIGINATOR/></header><body><segment><metadata><OBJECT_NAME>IRIDIUM 178</OBJECT_NAME><OBJECT_ID>2023-068V</OBJECT_ID><CENTER_NAME>EARTH</CENTER_NAME><REF_FRAME>TEME</REF_FRAME><TIME_SYSTEM>UTC</TIME_SYSTEM><MEAN_ELEMENT_THEORY>SGP4</MEAN_ELEMENT_THEORY></metadata><data><meanElements><EPOCH>2024-07-25T08:12:00.966240</EPOCH><MEAN_MOTION>14.80220085</MEAN_MOTION><ECCENTRICITY>.0002754</ECCENTRICITY><INCLINATION>86.5805</INCLINATION><RA_OF_ASC_NODE>316.6275</RA_OF_ASC_NODE><ARG_OF_PERICENTER>92.3337</ARG_OF_PERICENTER><MEAN_ANOMALY>267.8200</MEAN_ANOMALY></meanElements><tleParameters><EPHEMERIS_TYPE>0</EPHEMERIS_TYPE><CLASSIFICATION_TYPE>U</CLASSIFICATION_TYPE><NORAD_CAT_ID>56729</NORAD_CAT_ID><ELEMENT_SET_NO>999</ELEMENT_SET_NO><REV_AT_EPOCH>6402</REV_AT_EPOCH><BSTAR>.35734E-3</BSTAR><MEAN_MOTION_DOT>.2741E-4</MEAN_MOTION_DOT><MEAN_MOTION_DDOT>0</MEAN_MOTION_DDOT></tleParameters></data></segment></body></omm>
<omm id="CCSDS_OMM_VERS" version="2.0">
<header><CREATION_DATE/><ORIGINATOR/></header><body><segment><metadata><OBJECT_NAME>IRIDIUM 179</OBJECT_NAME><OBJECT_ID>2023-068W</OBJECT_ID><CENTER_NAME>EARTH</CENTER_NAME><REF_FRAME>TEME</REF_FRAME><TIME_SYSTEM>UTC</TIME_SYSTEM><MEAN_ELEMENT_THEORY>SGP4</MEAN_ELEMENT_THEORY></metadata><data><meanElements><EPOCH>2024-07-24T23:57:27.101376</EPOCH><MEAN_MOTION>14.80217383</MEAN_MOTION><ECCENTRICITY>.0002334</ECCENTRICITY><INCLINATION>86.6814</INCLINATION><RA_OF_ASC_NODE>321.3844</RA_OF_ASC_NODE><ARG_OF_PERICENTER>95.2867</ARG_OF_PERICENTER><MEAN_ANOMALY>264.8621</MEAN_ANOMALY></meanElements><tleParameters><EPHEMERIS_TYPE>0</EPHEMERIS_TYPE><CLASSIFICATION_TYPE>U</CLASSIFICATION_TYPE><NORAD_CAT_ID>56730</NORAD_CAT_ID><ELEMENT_SET_NO>999</ELEMENT_SET_NO><REV_AT_EPOCH>6397</REV_AT_EPOCH><BSTAR>.15704E-3</BSTAR><MEAN_MOTION_DOT>.1219E-4</MEAN_MOTION_DOT><MEAN_MOTION_DDOT>0</MEAN_MOTION_DDOT></tleParameters></data></segment></body></omm>
</ndm>
